ONEWEB-0638             
1 55802U 23029G   26055.20592658 -.00000269  00000+0 -75976-3 0  9996
2 55802  87.8998 312.2988 0001198  63.0406 297.0846 13.14503753144559
ONEWEB-0639             
1 55803U 23029H   26055.29233903  .00000049  00000+0  88852-4 0  9993
2 55803  87.9242 327.4626 0001788 115.2204 244.9115 13.19726246144011
ONEWEB-0640             
1 55804U 23029J   26055.21542006 -.00000310  00000+0 -87158-3 0  9993
2 55804  87.9000 312.2871 0000912  80.2633 279.8600 13.14503055144576
ONEWEB-0641             
1 55805U 23029K   26055.28759880  .00000034  00000+0  51744-4 0  9995
2 55805  87.9248 327.4494 0001750  84.6667 275.4666 13.19724995144023
ONEWEB-0642             
1 55806U 23029L   26055.28286300  .00000009  00000+0 -10731-4 0  9992
2 55806  87.9243 327.4657 0001948 104.3608 255.7741 13.19725621144015
ONEWEB-0643             
1 55807U 23029M   26055.26141599  .00000004  00000+0 -23166-4 0  9992
2 55807  87.9004 312.2650 0002029  98.2953 261.8407 13.14501351144554
ONEWEB-0644             
1 55808U 23029N   26055.27812990  .00000046  00000+0  82131-4 0  9996
2 55808  87.9232 327.4744 0001859  90.3410 269.7935 13.19725156144011
ONEWEB-0645             
1 55809U 23029P   26055.22440588  .00000022  00000+0  21767-4 0  9994
2 55809  87.9238 327.4767 0001377  93.1508 266.9782 13.19723460144001
ONEWEB-0646             
1 55810U 23029Q   26055.24179173  .00000136  00000+0  30615-3 0  9994
2 55810  87.9246 327.4726 0001794  88.2389 271.8949 13.19726244143992
ONEWEB-0648             
1 55811U 23029R   26055.22969664  .00000015  00000+0  55344-5 0  9999
2 55811  87.9006 312.2354 0001411 115.8306 244.2969 13.14502218144555
ONEWEB-0649             
1 55812U 23029S   26055.26703230 -.00002574  00000+0 -64622-2 0  9999
2 55812  87.9240 327.4646 0001306  95.0695 265.0587 13.19744537144038
ONEWEB-0650             
1 55813U 23029T   26055.26232803  .00000037  00000+0  59189-4 0  9997
2 55813  87.9243 327.4688 0001758  95.1247 265.0086 13.19725802144008
ONEWEB-0652             
1 55814U 23029U   26055.21066912 -.00000356  00000+0 -99526-3 0  9993
2 55814  87.9005 312.2549 0001714  75.0454 285.0865 13.14503064144525
ONEWEB-0653             
1 55815U 23029V   26055.27092767 -.00000411  00000+0 -11429-2 0  9994
2 55815  87.9002 312.2338 0001575  73.8348 286.2956 13.14502684144567
ONEWEB-0654             
1 55816U 23029W   26055.26617155 -.00000111  00000+0 -33346-3 0  9998
2 55816  87.9002 312.2344 0001784  67.7754 292.3564 13.14501068144580
ONEWEB-0656             
1 55817U 23029X   26055.17495489  .00000059  00000+0  11429-3 0  9990
2 55817  87.9193 296.9901 0001746  67.7945 292.3374 13.20771851146238
ONEWEB-0657             
1 55818U 23029Y   26055.25759401  .00000126  00000+0  28235-3 0  9995
2 55818  87.9242 327.4685 0002421  73.4727 286.6671 13.19724543144010
