[{"OBJECT_NAME":"ONEWEB-0638","OBJECT_ID":"2023-029G","EPOCH":"2026-02-24T04:56:32.056512","MEAN_MOTION":13.14503753,"ECCENTRICITY":0.00011985,"INCLINATION":87.8998,"RA_OF_ASC_NODE":312.2988,"ARG_OF_PERICENTER":63.0406,"MEAN_ANOMALY":297.0846,"EPHEMERIS_TYPE":0,"CLASSIFICATION_TYPE":"U","NORAD_CAT_ID":55802,"ELEMENT_SET_NO":999,"REV_AT_EPOCH":14455,"BSTAR":-0.0007597621,"MEAN_MOTION_DOT":-2.69e-6,"MEAN_MOTION_DDOT":0},{"OBJECT_NAME":"ONEWEB-0639","OBJECT_ID":"2023-029H","EPOCH":"2026-02-24T07:00:58.092192","MEAN_MOTION":13.19726246,"ECCENTRICITY":0.00017883,"INCLINATION":87.9242,"RA_OF_ASC_NODE":327.4626,"ARG_OF_PERICENTER":115.2204,"MEAN_ANOMALY":244.9115,"EPHEMERIS_TYPE":0,"CLASSIFICATION_TYPE":"U","NORAD_CAT_ID":55803,"ELEMENT_SET_NO":999,"REV_AT_EPOCH":14401,"BSTAR":8.8851737e-5,"MEAN_MOTION_DOT":4.9e-7,"MEAN_MOTION_DDOT":0},{"OBJECT_NAME":"ONEWEB-0640","OBJECT_ID":"2023-029J","EPOCH":"2026-02-24T05:10:12.293184","MEAN_MOTION":13.14503055,"ECCENTRICITY":9.129e-5,"INCLINATION":87.9,"RA_OF_ASC_NODE":312.2871,"ARG_OF_PERICENTER":80.2633,"MEAN_ANOMALY":279.86,"EPHEMERIS_TYPE":0,"CLASSIFICATION_TYPE":"U","NORAD_CAT_ID":55804,"ELEMENT_SET_NO":999,"REV_AT_EPOCH":14457,"BSTAR":-0.00087157531,"MEAN_MOTION_DOT":-3.1e-6,"MEAN_MOTION_DDOT":0},{"OBJECT_NAME":"ONEWEB-0641","OBJECT_ID":"2023-029K","EPOCH":"2026-02-24T06:54:08.536320","MEAN_MOTION":13.19724995,"ECCENTRICITY":0.00017503,"INCLINATION":87.9248,"RA_OF_ASC_NODE":327.4494,"ARG_OF_PERICENTER":84.6667,"MEAN_ANOMALY":275.4666,"EPHEMERIS_TYPE":0,"CLASSIFICATION_TYPE":"U","NORAD_CAT_ID":55805,"ELEMENT_SET_NO":999,"REV_AT_EPOCH":14402,"BSTAR":5.1743504e-5,"MEAN_MOTION_DOT":3.4e-7,"MEAN_MOTION_DDOT":0},{"OBJECT_NAME":"ONEWEB-0642","OBJECT_ID":"2023-029L","EPOCH":"2026-02-24T06:47:19.363200","MEAN_MOTION":13.19725621,"ECCENTRICITY":0.00019488,"INCLINATION":87.9243,"RA_OF_ASC_NODE":327.4657,"ARG_OF_PERICENTER":104.3608,"MEAN_ANOMALY":255.7741,"EPHEMERIS_TYPE":0,"CLASSIFICATION_TYPE":"U","NORAD_CAT_ID":55806,"ELEMENT_SET_NO":999,"REV_AT_EPOCH":14401,"BSTAR":-1.0730675e-5,"MEAN_MOTION_DOT":9.0e-8,"MEAN_MOTION_DDOT":0},{"OBJECT_NAME":"ONEWEB-0643","OBJECT_ID":"2023-029M","EPOCH":"2026-02-24T06:16:26.341536","MEAN_MOTION":13.14501351,"ECCENTRICITY":0.00020293,"INCLINATION":87.9004,"RA_OF_ASC_NODE":312.265,"ARG_OF_PERICENTER":98.2953,"MEAN_ANOMALY":261.8407,"EPHEMERIS_TYPE":0,"CLASSIFICATION_TYPE":"U","NORAD_CAT_ID":55807,"ELEMENT_SET_NO":999,"REV_AT_EPOCH":14455,"BSTAR":-2.3165982e-5,"MEAN_MOTION_DOT":4.0e-8,"MEAN_MOTION_DDOT":0},{"OBJECT_NAME":"ONEWEB-0644","OBJECT_ID":"2023-029N","EPOCH":"2026-02-24T06:40:30.423360","MEAN_MOTION":13.19725156,"ECCENTRICITY":0.00018596,"INCLINATION":87.9232,"RA_OF_ASC_NODE":327.4744,"ARG_OF_PERICENTER":90.341,"MEAN_ANOMALY":269.7935,"EPHEMERIS_TYPE":0,"CLASSIFICATION_TYPE":"U","NORAD_CAT_ID":55808,"ELEMENT_SET_NO":999,"REV_AT_EPOCH":14401,"BSTAR":8.2130774e-5,"MEAN_MOTION_DOT":4.6e-7,"MEAN_MOTION_DDOT":0},{"OBJECT_NAME":"ONEWEB-0645","OBJECT_ID":"2023-029P","EPOCH":"2026-02-24T05:23:08.668032","MEAN_MOTION":13.1972346,"ECCENTRICITY":0.00013774,"INCLINATION":87.9238,"RA_OF_ASC_NODE":327.4767,"ARG_OF_PERICENTER":93.1508,"MEAN_ANOMALY":266.9782,"EPHEMERIS_TYPE":0,"CLASSIFICATION_TYPE":"U","NORAD_CAT_ID":55809,"ELEMENT_SET_NO":999,"REV_AT_EPOCH":14400,"BSTAR":2.1767262e-5,"MEAN_MOTION_DOT":2.2e-7,"MEAN_MOTION_DDOT":0},{"OBJECT_NAME":"ONEWEB-0646","OBJECT_ID":"2023-029Q","EPOCH":"2026-02-24T05:48:10.805472","MEAN_MOTION":13.19726244,"ECCENTRICITY":0.00017942,"INCLINATION":87.9246,"RA_OF_ASC_NODE":327.4726,"ARG_OF_PERICENTER":88.2389,"MEAN_ANOMALY":271.8949,"EPHEMERIS_TYPE":0,"CLASSIFICATION_TYPE":"U","NORAD_CAT_ID":55810,"ELEMENT_SET_NO":999,"REV_AT_EPOCH":14399,"BSTAR":0.00030615147,"MEAN_MOTION_DOT":1.36e-6,"MEAN_MOTION_DDOT":0},{"OBJECT_NAME":"ONEWEB-0648","OBJECT_ID":"2023-029R","EPOCH":"2026-02-24T05:30:45.789696","MEAN_MOTION":13.14502218,"ECCENTRICITY":0.00014115,"INCLINATION":87.9006,"RA_OF_ASC_NODE":312.2354,"ARG_OF_PERICENTER":115.8306,"MEAN_ANOMALY":244.2969,"EPHEMERIS_TYPE":0,"CLASSIFICATION_TYPE":"U","NORAD_CAT_ID":55811,"ELEMENT_SET_NO":999,"REV_AT_EPOCH":14455,"BSTAR":5.534399e-6,"MEAN_MOTION_DOT":1.5e-7,"MEAN_MOTION_DDOT":0},{"OBJECT_NAME":"ONEWEB-0649","OBJECT_ID":"2023-029S","EPOCH":"2026-02-24T06:24:31.590720","MEAN_MOTION":13.19744537,"ECCENTRICITY":0.00013062,"INCLINATION":87.924,"RA_OF_ASC_NODE":327.4646,"ARG_OF_PERICENTER":95.0695,"MEAN_ANOMALY":265.0587,"EPHEMERIS_TYPE":0,"CLASSIFICATION_TYPE":"U","NORAD_CAT_ID":55812,"ELEMENT_SET_NO":999,"REV_AT_EPOCH":14403,"BSTAR":-0.0064622225,"MEAN_MOTION_DOT":-2.574e-5,"MEAN_MOTION_DDOT":0},{"OBJECT_NAME":"ONEWEB-0650","OBJECT_ID":"2023-029T","EPOCH":"2026-02-24T06:17:45.141792","MEAN_MOTION":13.19725802,"ECCENTRICITY":0.00017583,"INCLINATION":87.9243,"RA_OF_ASC_NODE":327.4688,"ARG_OF_PERICENTER":95.1247,"MEAN_ANOMALY":265.0086,"EPHEMERIS_TYPE":0,"CLASSIFICATION_TYPE":"U","NORAD_CAT_ID":55813,"ELEMENT_SET_NO":999,"REV_AT_EPOCH":14400,"BSTAR":5.9188753e-5,"MEAN_MOTION_DOT":3.7e-7,"MEAN_MOTION_DDOT":0},{"OBJECT_NAME":"ONEWEB-0652","OBJECT_ID":"2023-029U","EPOCH":"2026-02-24T05:03:21.811968","MEAN_MOTION":13.14503064,"ECCENTRICITY":0.00017143,"INCLINATION":87.9005,"RA_OF_ASC_NODE":312.2549,"ARG_OF_PERICENTER":75.0454,"MEAN_ANOMALY":285.0865,"EPHEMERIS_TYPE":0,"CLASSIFICATION_TYPE":"U","NORAD_CAT_ID":55814,"ELEMENT_SET_NO":999,"REV_AT_EPOCH":14452,"BSTAR":-0.00099526147,"MEAN_MOTION_DOT":-3.56e-6,"MEAN_MOTION_DDOT":0},{"OBJECT_NAME":"ONEWEB-0653","OBJECT_ID":"2023-029V","EPOCH":"2026-02-24T06:30:08.150688","MEAN_MOTION":13.14502684,"ECCENTRICITY":0.00015752,"INCLINATION":87.9002,"RA_OF_ASC_NODE":312.2338,"ARG_OF_PERICENTER":73.8348,"MEAN_ANOMALY":286.2956,"EPHEMERIS_TYPE":0,"CLASSIFICATION_TYPE":"U","NORAD_CAT_ID":55815,"ELEMENT_SET_NO":999,"REV_AT_EPOCH":14456,"BSTAR":-0.0011428759,"MEAN_MOTION_DOT":-4.11e-6,"MEAN_MOTION_DDOT":0},{"OBJECT_NAME":"ONEWEB-0654","OBJECT_ID":"2023-029W","EPOCH":"2026-02-24T06:23:17.221920","MEAN_MOTION":13.14501068,"ECCENTRICITY":0.0001784,"INCLINATION":87.9002,"RA_OF_ASC_NODE":312.2344,"ARG_OF_PERICENTER":67.7754,"MEAN_ANOMALY":292.3564,"EPHEMERIS_TYPE":0,"CLASSIFICATION_TYPE":"U","NORAD_CAT_ID":55816,"ELEMENT_SET_NO":999,"REV_AT_EPOCH":14458,"BSTAR":-0.0003334627,"MEAN_MOTION_DOT":-1.11e-6,"MEAN_MOTION_DDOT":0},{"OBJECT_NAME":"ONEWEB-0656","OBJECT_ID":"2023-029X","EPOCH":"2026-02-24T04:11:56.102496","MEAN_MOTION":13.20771851,"ECCENTRICITY":0.00017463,"INCLINATION":87.9193,"RA_OF_ASC_NODE":296.9901,"ARG_OF_PERICENTER":67.7945,"MEAN_ANOMALY":292.3374,"EPHEMERIS_TYPE":0,"CLASSIFICATION_TYPE":"U","NORAD_CAT_ID":55817,"ELEMENT_SET_NO":999,"REV_AT_EPOCH":14623,"BSTAR":0.00011429187,"MEAN_MOTION_DOT":5.9e-7,"MEAN_MOTION_DDOT":0},{"OBJECT_NAME":"ONEWEB-0657","OBJECT_ID":"2023-029Y","EPOCH":"2026-02-24T06:10:56.122464","MEAN_MOTION":13.19724543,"ECCENTRICITY":0.00024213,"INCLINATION":87.9242,"RA_OF_ASC_NODE":327.4685,"ARG_OF_PERICENTER":73.4727,"MEAN_ANOMALY":286.6671,"EPHEMERIS_TYPE":0,"CLASSIFICATION_TYPE":"U","NORAD_CAT_ID":55818,"ELEMENT_SET_NO":999,"REV_AT_EPOCH":14401,"BSTAR":0.00028234885,"MEAN_MOTION_DOT":1.26e-6,"MEAN_MOTION_DDOT":0}]
